CCSDS_OMM_VERS = 2.0
CREATION_DATE  = 
ORIGINATOR     = 

OBJECT_NAME    = HTV-X1
OBJECT_ID      = 2025-241A
CENTER_NAME    = EARTH
REF_FRAME      = TEME
TIME_SYSTEM    = UTC
MEAN_ELEMENT_THEORY = SGP/SGP4

EPOCH          = 2026-03-14T08:15:41.718240
MEAN_MOTION    = 15.22910005
ECCENTRICITY   = .00057324
INCLINATION    = 51.6357
RA_OF_ASC_NODE = 50.7100
ARG_OF_PERICENTER = 187.3443
MEAN_ANOMALY   = 172.7451

EPHEMERIS_TYPE = 0
CLASSIFICATION_TYPE = U
NORAD_CAT_ID   = 66174
ELEMENT_SET_NO = 999
REV_AT_EPOCH   = 2166
BSTAR          = .5679389E-3
MEAN_MOTION_DOT = .13198E-3
MEAN_MOTION_DDOT = 0

CCSDS_OMM_VERS = 2.0
CREATION_DATE  = 
ORIGINATOR     = 

OBJECT_NAME    = SZ-21 MODULE
OBJECT_ID      = 2025-246C
CENTER_NAME    = EARTH
REF_FRAME      = TEME
TIME_SYSTEM    = UTC
MEAN_ELEMENT_THEORY = SGP/SGP4

EPOCH          = 2026-03-22T11:38:20.297760
MEAN_MOTION    = 15.69506130
ECCENTRICITY   = .00005659
INCLINATION    = 41.4732
RA_OF_ASC_NODE = 124.5360
ARG_OF_PERICENTER = 224.6244
MEAN_ANOMALY   = 135.4553

EPHEMERIS_TYPE = 0
CLASSIFICATION_TYPE = U
NORAD_CAT_ID   = 66515
ELEMENT_SET_NO = 999
REV_AT_EPOCH   = 2008
BSTAR          = .31883486E-3
MEAN_MOTION_DOT = .38543E-3
MEAN_MOTION_DDOT = 0

CCSDS_OMM_VERS = 2.0
CREATION_DATE  = 
ORIGINATOR     = 

OBJECT_NAME    = SHENZHOU-22
OBJECT_ID      = 2025-272A
CENTER_NAME    = EARTH
REF_FRAME      = TEME
TIME_SYSTEM    = UTC
MEAN_ELEMENT_THEORY = SGP/SGP4

EPOCH          = 2026-03-22T19:56:33.740448
MEAN_MOTION    = 15.61347376
ECCENTRICITY   = .00051315
INCLINATION    = 41.4659
RA_OF_ASC_NODE = 128.1599
ARG_OF_PERICENTER = 357.6032
MEAN_ANOMALY   = 2.4782

EPHEMERIS_TYPE = 0
CLASSIFICATION_TYPE = U
NORAD_CAT_ID   = 66645
ELEMENT_SET_NO = 999
REV_AT_EPOCH   = 27910
BSTAR          = .33727428E-3
MEAN_MOTION_DOT = .29328E-3
MEAN_MOTION_DDOT = 0

CCSDS_OMM_VERS = 2.0
CREATION_DATE  = 
ORIGINATOR     = 

OBJECT_NAME    = SOYUZ-MS 28
OBJECT_ID      = 2025-275A
CENTER_NAME    = EARTH
REF_FRAME      = TEME
TIME_SYSTEM    = UTC
MEAN_ELEMENT_THEORY = SGP/SGP4

EPOCH          = 2026-03-22T19:24:01.008864
MEAN_MOTION    = 15.48467485
ECCENTRICITY   = .00061805
INCLINATION    = 51.6342
RA_OF_ASC_NODE = 7.5089
ARG_OF_PERICENTER = 221.2634
MEAN_ANOMALY   = 138.7888

EPHEMERIS_TYPE = 0
CLASSIFICATION_TYPE = U
NORAD_CAT_ID   = 66664
ELEMENT_SET_NO = 999
REV_AT_EPOCH   = 55771
BSTAR          = .29809493E-3
MEAN_MOTION_DOT = .15711E-3
MEAN_MOTION_DDOT = 0

CCSDS_OMM_VERS = 2.0
CREATION_DATE  = 
ORIGINATOR     = 

OBJECT_NAME    = DUPLEX
OBJECT_ID      = 1998-067XS
CENTER_NAME    = EARTH
REF_FRAME      = TEME
TIME_SYSTEM    = UTC
MEAN_ELEMENT_THEORY = SGP/SGP4

EPOCH          = 2026-03-22T11:45:41.749920
MEAN_MOTION    = 15.57009571
ECCENTRICITY   = .00031066
INCLINATION    = 51.6304
RA_OF_ASC_NODE = 5.3859
ARG_OF_PERICENTER = 167.5830
MEAN_ANOMALY   = 192.5239

EPHEMERIS_TYPE = 0
CLASSIFICATION_TYPE = U
NORAD_CAT_ID   = 66906
ELEMENT_SET_NO = 999
REV_AT_EPOCH   = 1712
BSTAR          = .43623096E-3
MEAN_MOTION_DOT = .31751E-3
MEAN_MOTION_DDOT = 0

CCSDS_OMM_VERS = 2.0
CREATION_DATE  = 
ORIGINATOR     = 

OBJECT_NAME    = ISS OBJECT XT
OBJECT_ID      = 1998-067XT
CENTER_NAME    = EARTH
REF_FRAME      = TEME
TIME_SYSTEM    = UTC
MEAN_ELEMENT_THEORY = SGP/SGP4

EPOCH          = 2026-03-22T01:09:00.897120
MEAN_MOTION    = 15.73470745
ECCENTRICITY   = .00053178
INCLINATION    = 51.6258
RA_OF_ASC_NODE = 2.4058
ARG_OF_PERICENTER = 159.5526
MEAN_ANOMALY   = 200.5686

EPHEMERIS_TYPE = 0
CLASSIFICATION_TYPE = U
NORAD_CAT_ID   = 66907
ELEMENT_SET_NO = 999
REV_AT_EPOCH   = 1712
BSTAR          = .14285344E-2
MEAN_MOTION_DOT = .207763E-2
MEAN_MOTION_DDOT = 0

CCSDS_OMM_VERS = 2.0
CREATION_DATE  = 
ORIGINATOR     = 

OBJECT_NAME    = ISS OBJECT XU
OBJECT_ID      = 1998-067XU
CENTER_NAME    = EARTH
REF_FRAME      = TEME
TIME_SYSTEM    = UTC
MEAN_ELEMENT_THEORY = SGP/SGP4

EPOCH          = 2026-03-22T19:22:05.245824
MEAN_MOTION    = 15.73982205
ECCENTRICITY   = .0005576
INCLINATION    = 51.6247
RA_OF_ASC_NODE = 358.4694
ARG_OF_PERICENTER = 164.1300
MEAN_ANOMALY   = 195.9875

EPHEMERIS_TYPE = 0
CLASSIFICATION_TYPE = U
NORAD_CAT_ID   = 66908
ELEMENT_SET_NO = 999
REV_AT_EPOCH   = 1724
BSTAR          = .16085527E-2
MEAN_MOTION_DOT = .240174E-2
MEAN_MOTION_DDOT = 0

CCSDS_OMM_VERS = 2.0
CREATION_DATE  = 
ORIGINATOR     = 

OBJECT_NAME    = SILVERSAT
OBJECT_ID      = 1998-067XV
CENTER_NAME    = EARTH
REF_FRAME      = TEME
TIME_SYSTEM    = UTC
MEAN_ELEMENT_THEORY = SGP/SGP4

EPOCH          = 2026-03-22T18:41:37.409280
MEAN_MOTION    = 15.78240122
ECCENTRICITY   = .00062405
INCLINATION    = 51.6232
RA_OF_ASC_NODE = 357.5246
ARG_OF_PERICENTER = 169.4217
MEAN_ANOMALY   = 190.6917

EPHEMERIS_TYPE = 0
CLASSIFICATION_TYPE = U
NORAD_CAT_ID   = 66909
ELEMENT_SET_NO = 999
REV_AT_EPOCH   = 1725
BSTAR          = .17199576E-2
MEAN_MOTION_DOT = .3125E-2
MEAN_MOTION_DDOT = 0

CCSDS_OMM_VERS = 2.0
CREATION_DATE  = 
ORIGINATOR     = 

OBJECT_NAME    = ISS OBJECT XW
OBJECT_ID      = 1998-067XW
CENTER_NAME    = EARTH
REF_FRAME      = TEME
TIME_SYSTEM    = UTC
MEAN_ELEMENT_THEORY = SGP/SGP4

EPOCH          = 2026-03-22T19:29:32.842752
MEAN_MOTION    = 15.72682903
ECCENTRICITY   = .0005677
INCLINATION    = 51.6245
RA_OF_ASC_NODE = 358.5017
ARG_OF_PERICENTER = 163.9003
MEAN_ANOMALY   = 196.2177

EPHEMERIS_TYPE = 0
CLASSIFICATION_TYPE = U
NORAD_CAT_ID   = 66910
ELEMENT_SET_NO = 999
REV_AT_EPOCH   = 1724
BSTAR          = .14448496E-2
MEAN_MOTION_DOT = .20308E-2
MEAN_MOTION_DDOT = 0

CCSDS_OMM_VERS = 2.0
CREATION_DATE  = 
ORIGINATOR     = 

OBJECT_NAME    = ISS OBJECT XX
OBJECT_ID      = 1998-067XX
CENTER_NAME    = EARTH
REF_FRAME      = TEME
TIME_SYSTEM    = UTC
MEAN_ELEMENT_THEORY = SGP/SGP4

EPOCH          = 2026-03-22T22:22:01.444224
MEAN_MOTION    = 15.83504434
ECCENTRICITY   = .00077426
INCLINATION    = 51.6203
RA_OF_ASC_NODE = 355.5168
ARG_OF_PERICENTER = 173.5148
MEAN_ANOMALY   = 186.5957

EPHEMERIS_TYPE = 0
CLASSIFICATION_TYPE = U
NORAD_CAT_ID   = 66911
ELEMENT_SET_NO = 999
REV_AT_EPOCH   = 1728
BSTAR          = .20853489E-2
MEAN_MOTION_DOT = .493485E-2
MEAN_MOTION_DDOT = 0

CCSDS_OMM_VERS = 2.0
CREATION_DATE  = 
ORIGINATOR     = 

OBJECT_NAME    = ISS OBJECT XY
OBJECT_ID      = 1998-067XY
CENTER_NAME    = EARTH
REF_FRAME      = TEME
TIME_SYSTEM    = UTC
MEAN_ELEMENT_THEORY = SGP/SGP4

EPOCH          = 2026-03-22T19:11:46.559616
MEAN_MOTION    = 15.66273278
ECCENTRICITY   = .0003981
INCLINATION    = 51.6281
RA_OF_ASC_NODE = 0.6950
ARG_OF_PERICENTER = 166.1581
MEAN_ANOMALY   = 193.9525

EPHEMERIS_TYPE = 0
CLASSIFICATION_TYPE = U
NORAD_CAT_ID   = 66912
ELEMENT_SET_NO = 999
REV_AT_EPOCH   = 1720
BSTAR          = .11180403E-2
MEAN_MOTION_DOT = .119072E-2
MEAN_MOTION_DDOT = 0

CCSDS_OMM_VERS = 2.0
CREATION_DATE  = 
ORIGINATOR     = 

OBJECT_NAME    = KNACKSAT-2
OBJECT_ID      = 1998-067XZ
CENTER_NAME    = EARTH
REF_FRAME      = TEME
TIME_SYSTEM    = UTC
MEAN_ELEMENT_THEORY = SGP/SGP4

EPOCH          = 2026-03-22T00:33:47.312928
MEAN_MOTION    = 15.52813480
ECCENTRICITY   = .00097794
INCLINATION    = 51.6319
RA_OF_ASC_NODE = 10.5197
ARG_OF_PERICENTER = 229.8924
MEAN_ANOMALY   = 130.1210

EPHEMERIS_TYPE = 0
CLASSIFICATION_TYPE = U
NORAD_CAT_ID   = 67683
ELEMENT_SET_NO = 999
REV_AT_EPOCH   = 670
BSTAR          = .76672661E-3
MEAN_MOTION_DOT = .48297E-3
MEAN_MOTION_DDOT = 0

