HTV-X1                  
1 66174U 25241A   26073.34423285  .00013198  00000+0  56794-3 0  9992
2 66174  51.6357  50.7100 0005732 187.3443 172.7451 15.22910005 21660
SZ-21 MODULE            
1 66515U 25246C   26081.48495715  .00038543  00000+0  31883-3 0  9990
2 66515  41.4732 124.5360 0000565 224.6244 135.4553 15.69506130 20089
SHENZHOU-22             
1 66645U 25272A   26081.83094607  .00029328  00000+0  33727-3 0  9997
2 66645  41.4659 128.1599 0005131 357.6032   2.4782 15.61347376279104
SOYUZ-MS 28             
1 66664U 25275A   26081.80834501  .00015711  00000+0  29809-3 0  9990
2 66664  51.6342   7.5089 0006180 221.2634 138.7888 15.48467485557715
DUPLEX                  
1 66906U 98067XS  26081.49006655  .00031751  00000+0  43623-3 0  9996
2 66906  51.6304   5.3859 0003106 167.5830 192.5239 15.57009571 17120
ISS OBJECT XT           
1 66907U 98067XT  26081.04792705  .00207763  00000+0  14285-2 0  9995
2 66907  51.6258   2.4058 0005317 159.5526 200.5686 15.73470745 17126
ISS OBJECT XU           
1 66908U 98067XU  26081.80700516  .00240174  00000+0  16086-2 0  9993
2 66908  51.6247 358.4694 0005576 164.1300 195.9875 15.73982205 17243
SILVERSAT               
1 66909U 98067XV  26081.77890520  .00312500  00000+0  17200-2 0  9997
2 66909  51.6232 357.5246 0006240 169.4217 190.6917 15.78240122 17255
ISS OBJECT XW           
1 66910U 98067XW  26081.81218568  .00203080  00000+0  14448-2 0  9993
2 66910  51.6245 358.5017 0005677 163.9003 196.2177 15.72682903 17243
ISS OBJECT XX           
1 66911U 98067XX  26081.93196116  .00493485  00000+0  20853-2 0  9998
2 66911  51.6203 355.5168 0007742 173.5148 186.5957 15.83504434 17280
ISS OBJECT XY           
1 66912U 98067XY  26081.79984444  .00119072  00000+0  11180-2 0  9992
2 66912  51.6281   0.6950 0003981 166.1581 193.9525 15.66273278 17209
KNACKSAT-2              
1 67683U 98067XZ  26081.02346427  .00048297  00000+0  76673-3 0  9996
2 67683  51.6319  10.5197 0009779 229.8924 130.1210 15.52813480  6706
